NORAD_CAT_ID,OBJECT_NAME,OBJECT_TYPE,EPOCH,MEAN_MOTION,ECCENTRICITY,INCLINATION,RA_OF_ASC_NODE,ARG_OF_PERICENTER,MEAN_ANOMALY,BSTAR,MEAN_MOTION_DOT,MEAN_MOTION_DDOT,TLE_LINE0,TLE_LINE1,TLE_LINE2,SEMIMAJOR_AXIS,PERIOD,APOGEE,PERIGEE,DECAYED
53563.0,STARLINK-4561,PAYLOAD,2023-10-30 18:40:40,15.08834153,0.0001745,53.2163,319.1256,85.1144,275.0047,0.00034992,5.284e-05,0.0,0 STARLINK-4561,1 53563U 22101AN  23303.77824592  .00005284  00000-0  34992-3 0  9992,2 53563  53.2163 319.1256 0001745  85.1144 275.0047 15.08834153 66477,6917.898,95.438,540.97,538.556,0.0
53563.0,STARLINK-4561,PAYLOAD,2023-10-31 07:23:45,15.08835245,0.0001758,53.2166,316.7454,95.1895,264.9298,0.00044478,6.797e-05,0.0,0 STARLINK-4561,1 53563U 22101AN  23304.30816980  .00006797  00000-0  44478-3 0  9994,2 53563  53.2166 316.7454 0001758  95.1895 264.9298 15.08835245 66558,6917.895,95.438,540.976,538.544,0.0
53563.0,STARLINK-4561,PAYLOAD,2023-11-01 04:03:46,15.08850777,0.0001776,53.2168,312.8812,87.3457,272.7738,0.00070424,0.00010941,0.0,0 STARLINK-4561,1 53563U 22101AN  23305.16928954  .00010941  00000-0  70424-3 0  9990,2 53563  53.2168 312.8812 0001776  87.3457 272.7738 15.08850777 66689,6917.847,95.437,540.941,538.484,0.0
53563.0,STARLINK-4561,PAYLOAD,2023-11-01 07:14:32,15.08853845,0.000182,53.2173,312.2856,91.3454,268.7747,0.00067997,0.00010554,0.0,0 STARLINK-4561,1 53563U 22101AN  23305.30176787  .00010554  00000-0  67997-3 0  9996,2 53563  53.2173 312.2856 0001820  91.3454 268.7747 15.08853845 66706,6917.838,95.437,540.962,538.444,0.0
53563.0,STARLINK-4561,PAYLOAD,2023-11-02 03:54:33,15.08854219,0.0001736,53.2172,308.4197,98.5695,261.5494,0.00044018,6.727e-05,0.0,0 STARLINK-4561,1 53563U 22101AN  23306.16288551  .00006727  00000-0  44018-3 0  9990,2 53563  53.2172 308.4197 0001736  98.5695 261.5494 15.08854219 66832,6917.837,95.437,540.903,538.501,0.0
53563.0,STARLINK-4561,PAYLOAD,2023-11-02 10:16:05,15.08849907,0.0001821,53.2173,307.2301,96.4016,263.7184,0.00024107,3.552e-05,0.0,0 STARLINK-4561,1 53563U 22101AN  23306.42784482  .00003552  00000-0  24107-3 0  9993,2 53563  53.2173 307.2301 0001821  96.4016 263.7184 15.08849907 66878,6917.85,95.437,540.975,538.455,0.0
53563.0,STARLINK-4561,PAYLOAD,2023-11-03 03:45:20,15.08838192,0.0001733,53.2169,303.9576,98.8836,261.2353,-6.6016e-05,-1.339e-05,0.0,0 STARLINK-4561,1 53563U 22101AN  23307.15648821 -.00001339  00000-0 -66016-4 0  9999,2 53563  53.2169 303.9576 0001733  98.8836 261.2353 15.08838192 66985,6917.886,95.438,540.95,538.552,0.0
53563.0,STARLINK-4561,PAYLOAD,2023-11-03 06:56:06,15.08841236,0.0001868,53.2178,303.3666,100.0682,260.0521,4.694e-05,4.59e-06,0.0,0 STARLINK-4561,1 53563U 22101AN  23307.28896782  .00000459  00000-0  46940-4 0  9998,2 53563  53.2178 303.3666 0001868 100.0682 260.0521 15.08841236 67004,6917.877,95.437,541.034,538.449,0.0
53563.0,STARLINK-4561,PAYLOAD,2023-11-03 22:49:58,15.08838228,0.0001716,53.2173,300.393,95.9434,264.1754,3.9581e-05,3.42e-06,0.0,0 STARLINK-4561,1 53563U 22101AN  23307.95137064  .00000342  00000-0  39581-4 0  9997,2 53563  53.2173 300.3930 0001716  95.9434 264.1754 15.08838228 67100,6917.886,95.438,540.938,538.564,0.0
53563.0,STARLINK-4561,PAYLOAD,2023-11-04 05:11:31,15.08838807,0.0001684,53.2174,299.2034,95.645,264.4734,5.2027e-05,5.4e-06,0.0,0 STARLINK-4561,1 53563U 22101AN  23308.21633105  .00000540  00000-0  52027-4 0  9994,2 53563  53.2174 299.2034 0001684  95.6450 264.4734 15.08838807 67149,6917.884,95.438,540.914,538.584,0.0
53563.0,STARLINK-4561,PAYLOAD,2023-11-04 06:46:54,15.08841151,0.0001642,53.2174,298.9062,95.667,264.451,9.0421e-05,1.151e-05,0.0,0 STARLINK-4561,1 53563U 22101AN  23308.28256992  .00001151  00000-0  90421-4 0  9995,2 53563  53.2174 298.9062 0001642  95.6670 264.4510 15.08841151 67153,6917.877,95.437,540.878,538.606,0.0
53563.0,STARLINK-4561,PAYLOAD,2023-11-04 16:19:12,15.0884413,0.0001595,53.2171,297.1217,94.31,265.8074,9.4921e-05,1.223e-05,0.0,0 STARLINK-4561,1 53563U 22101AN  23308.68000868  .00001223  00000-0  94921-4 0  9997,2 53563  53.2171 297.1217 0001595  94.3100 265.8074 15.08844130 67211,6917.868,95.437,540.836,538.629,0.0
53563.0,STARLINK-4561,PAYLOAD,2023-11-05 08:13:03,15.08851814,0.0001643,53.2167,294.1477,87.0283,273.0897,0.0002555,3.782e-05,0.0,0 STARLINK-4561,1 53563U 22101AN  23309.34240652  .00003782  00000-0  25550-3 0  9991,2 53563  53.2167 294.1477 0001643  87.0283 273.0897 15.08851814 67318,6917.844,95.437,540.846,538.573,0.0
53563.0,STARLINK-4561,PAYLOAD,2023-11-06 06:28:26,15.08878631,0.0001776,53.2185,289.9854,91.8287,268.2909,0.00056238,8.683e-05,0.0,0 STARLINK-4561,1 53563U 22101AN  23310.26974974  .00008683  00000-0  56238-3 0  9997,2 53563  53.2185 289.9854 0001776  91.8287 268.2909 15.08878631 67454,6917.762,95.435,540.856,538.399,0.0
53563.0,STARLINK-4561,PAYLOAD,2023-11-06 16:00:45,15.08855008,0.0002157,53.2184,288.2012,75.7159,284.4072,0.00016697,2.371e-05,0.0,0 STARLINK-4561,1 53563U 22101AN  23310.66719696  .00002371  00000-0  16697-3 0  9992,2 53563  53.2184 288.2012 0002157  75.7159 284.4072 15.08855008 67515,6917.835,95.437,541.192,538.207,0.0
53563.0,STARLINK-4561,PAYLOAD,2023-11-07 03:08:29,15.08815977,0.0001437,53.2196,286.1145,90.1449,269.9708,-0.00033306,-5.581e-05,0.0,0 STARLINK-4561,1 53563U 22101AN  23311.13089681 -.00005581  00000-0 -33306-3 0  9993,2 53563  53.2196 286.1145 0001437  90.1449 269.9708 15.08815977 67587,6917.954,95.439,540.813,538.825,0.0
53563.0,STARLINK-4561,PAYLOAD,2023-11-07 07:54:38,15.08824251,0.0001588,53.2175,285.2244,85.4591,274.6582,-0.00034761,-5.814e-05,0.0,0 STARLINK-4561,1 53563U 22101AN  23311.32961211 -.00005814  00000-0 -34761-3 0  9997,2 53563  53.2175 285.2244 0001588  85.4591 274.6582 15.08824251 67618,6917.929,95.439,540.892,538.695,0.0
53563.0,STARLINK-4561,PAYLOAD,2023-11-08 04:34:38,15.08862366,0.0001161,53.2172,281.3668,77.7953,282.3169,0.0001468,2.051e-05,0.0,0 STARLINK-4561,1 53563U 22101AN  23312.19072154  .00002051  00000-0  14680-3 0  9998,2 53563  53.2172 281.3668 0001161  77.7953 282.3169 15.08862366 67745,6917.812,95.436,540.48,538.874,0.0
53563.0,STARLINK-4561,PAYLOAD,2023-11-08 15:42:20,15.08840978,6.11e-05,53.2168,279.2865,25.721,334.3812,-8.117e-05,-1.579e-05,0.0,0 STARLINK-4561,1 53563U 22101AN  23312.65440785 -.00001579  00000-0 -81170-4 0  9993,2 53563  53.2168 279.2865 0000611  25.7210 334.3812 15.08840978 67819,6917.877,95.437,540.165,539.32,0.0
53563.0,STARLINK-4561,PAYLOAD,2023-11-09 07:36:11,15.08860742,9.36e-05,53.2171,276.3111,85.0167,275.0932,0.00068638,0.00010659,0.0,0 STARLINK-4561,1 53563U 22101AN  23313.31680294  .00010659  00000-0  68638-3 0  9998,2 53563  53.2171 276.3111 0000936  85.0167 275.0932 15.08860742 67911,6917.817,95.436,540.329,539.034,0.0
53563.0,STARLINK-4561,PAYLOAD,2023-11-10 04:16:13,15.08843482,8.2e-05,53.2178,272.4446,77.81,282.2984,0.00023475,3.451e-05,0.0,0 STARLINK-4561,1 53563U 22101AN  23314.17793089  .00003451  00000-0  23475-3 0  9992,2 53563  53.2178 272.4446 0000820  77.8100 282.2984 15.08843482 68048,6917.87,95.437,540.302,539.167,0.0
53563.0,STARLINK-4561,PAYLOAD,2023-11-10 13:48:32,15.08840303,0.0001428,53.2178,270.6558,87.784,272.3316,-3.8764e-05,-9.05e-06,0.0,0 STARLINK-4561,1 53563U 22101AN  23314.57537373 -.00000905  00000-0 -38764-4 0  9999,2 53563  53.2178 270.6558 0001428  87.7840 272.3316 15.08840303 68103,6917.879,95.438,540.732,538.757,0.0
53563.0,STARLINK-4561,PAYLOAD,2023-11-11 13:39:19,15.08841506,0.0001421,53.2169,266.1926,87.7786,272.3369,9.349e-07,-2.73e-06,0.0,0 STARLINK-4561,1 53563U 22101AN  23315.56897391 -.00000273  00000-0  93490-6 0  9994,2 53563  53.2169 266.1926 0001421  87.7786 272.3369 15.08841506 68254,6917.876,95.437,540.724,538.758,0.0
53563.0,STARLINK-4561,PAYLOAD,2023-11-12 03:57:48,15.08830538,0.0001331,53.2185,263.5206,90.2432,269.8713,0.00010954,1.455e-05,0.0,0 STARLINK-4561,1 53563U 22101AN  23316.16514600  .00001455  00000-0  10954-3 0  9993,2 53563  53.2185 263.5206 0001331  90.2432 269.8713 15.08830538 68348,6917.909,95.438,540.695,538.854,0.0
53563.0,STARLINK-4561,PAYLOAD,2023-11-12 13:30:06,15.08839437,0.00015,53.2183,261.7357,89.6119,270.5045,5.4378e-05,5.78e-06,0.0,0 STARLINK-4561,1 53563U 22101AN  23316.56258046  .00000578  00000-0  54378-4 0  9990,2 53563  53.2183 261.7357 0001500  89.6119 270.5045 15.08839437 68406,6917.882,95.438,540.785,538.709,0.0
53563.0,STARLINK-4561,PAYLOAD,2023-11-13 13:20:53,15.08842027,0.0001576,53.2181,257.2716,91.4602,268.6571,0.00011219,1.498e-05,0.0,0 STARLINK-4561,1 53563U 22101AN  23317.55618040  .00001498  00000-0  11219-3 0  9992,2 53563  53.2181 257.2716 0001576  91.4602 268.6571 15.08842027 68551,6917.874,95.437,540.829,538.649,0.0
53563.0,STARLINK-4561,PAYLOAD,2023-11-14 03:39:22,15.08846131,0.0001427,53.2179,254.5978,93.1909,266.9247,0.00013353,1.838e-05,0.0,0 STARLINK-4561,1 53563U 22101AN  23318.15233860  .00001838  00000-0  13353-3 0  9991,2 53563  53.2179 254.5978 0001427  93.1909 266.9247 15.08846131 68643,6917.862,95.437,540.714,538.739,0.0
53563.0,STARLINK-4561,PAYLOAD,2023-11-15 01:54:46,15.08839619,0.0001456,53.2177,250.4344,95.6765,264.4393,-6.7808e-05,-1.367e-05,0.0,0 STARLINK-4561,1 53563U 22101AN  23319.07970290 -.00001367  00000-0 -67808-4 0  9992,2 53563  53.2177 250.4344 0001456  95.6765 264.4393 15.08839619 68785,6917.882,95.438,540.754,538.739,0.0
53563.0,STARLINK-4561,PAYLOAD,2023-11-15 05:05:32,15.08841562,0.0001505,53.218,249.8382,111.4469,248.6684,-2.0015e-05,-6.07e-06,0.0,0 STARLINK-4561,1 53563U 22101AN  23319.21218114 -.00000607  00000-0 -20015-4 0  9993,2 53563  53.2180 249.8382 0001505 111.4469 248.6684 15.08841562 68806,6917.876,95.437,540.782,538.699,0.0
53563.0,STARLINK-4561,PAYLOAD,2023-11-16 04:56:20,15.08823739,0.000173,53.2193,245.3766,101.7357,258.3829,0.00037008,5.604e-05,0.0,0 STARLINK-4561,1 53563U 22101AN  23320.20578805  .00005604  00000-0  37008-3 0  9999,2 53563  53.2193 245.3766 0001730 101.7357 258.3829 15.08823739 68956,6917.93,95.439,540.992,538.598,0.0
